{
  "norad_id": 61543,
  "name": "STARLINK-11364 [DTC]",
  "history": [
    {
      "epoch": "2026-03-28T20:21:07.716672Z",
      "apogee_km": 360.5740391767158,
      "perigee_km": 358.8847213178615,
      "latitude_deg": -2.4993915199380808e-05,
      "longitude_deg": 10.472459839547877,
      "height_km": 360.4187654373441,
      "semi_major_axis_km": 6737.866380247288,
      "eccentricity": 0.00012536,
      "inclination_deg": 53.1597,
      "raan_deg": 142.0172,
      "arg_perigee_deg": 74.6143,
      "mean_anomaly_deg": 285.5013,
      "mean_motion_rev_day": 15.69709081
    }
  ]
}